NORAD_CAT_ID,OBJECT_NAME,OBJECT_TYPE,EPOCH,MEAN_MOTION,ECCENTRICITY,INCLINATION,RA_OF_ASC_NODE,ARG_OF_PERICENTER,MEAN_ANOMALY,BSTAR,MEAN_MOTION_DOT,MEAN_MOTION_DDOT,TLE_LINE0,TLE_LINE1,TLE_LINE2,SEMIMAJOR_AXIS,PERIOD,APOGEE,PERIGEE,DECAYED
53966.0,STARLINK-4635,PAYLOAD,2023-06-05 11:12:06,15.08838849,0.0001092,53.2169,70.2805,92.7479,267.3638,1.1389e-05,-1.07e-06,0.0,0 STARLINK-4635,1 53966U 22125C   23156.46674565 -.00000107  00000-0  11389-4 0  9996,2 53966  53.2169  70.2805 0001092  92.7479 267.3638 15.08838849 37110,6917.884,95.438,540.504,538.993,0.0
53966.0,STARLINK-4635,PAYLOAD,2023-06-05 19:09:02,15.08835726,0.0001252,53.2167,68.7948,88.0051,272.1084,5.2064e-07,-2.8e-06,0.0,0 STARLINK-4635,1 53966U 22125C   23156.79795067 -.00000280  00000-0  52064-6 0  9992,2 53966  53.2167  68.7948 0001252  88.0051 272.1084 15.08835726 37165,6917.893,95.438,540.625,538.892,0.0
53966.0,STARLINK-4635,PAYLOAD,2023-06-06 03:05:58,15.0884288,0.0001283,53.218,67.3084,90.0136,270.1003,5.3579e-05,5.65e-06,0.0,0 STARLINK-4635,1 53966U 22125C   23157.12914456  .00000565  00000-0  53579-4 0  9990,2 53966  53.2180  67.3084 0001283  90.0136 270.1003 15.08842880 37288,6917.872,95.437,540.624,538.849,0.0
53966.0,STARLINK-4635,PAYLOAD,2023-06-07 02:56:45,15.08842736,0.0001124,53.2171,62.8477,89.7053,270.4068,-1.6269e-05,-5.47e-06,0.0,0 STARLINK-4635,1 53966U 22125C   23158.12274803 -.00000547  00000-0 -16269-4 0  9993,2 53966  53.2171  62.8477 0001124  89.7053 270.4068 15.08842736 37432,6917.872,95.437,540.515,538.959,0.0
53966.0,STARLINK-4635,PAYLOAD,2023-06-07 17:15:14,15.08832508,0.0001269,53.2178,60.1725,92.44,267.6737,3.5794e-05,2.82e-06,0.0,0 STARLINK-4635,1 53966U 22125C   23158.71891438  .00000282  00000-0  35794-4 0  9995,2 53966  53.2178  60.1725 0001269  92.4400 267.6737 15.08832508 37520,6917.903,95.438,540.646,538.89,0.0
53966.0,STARLINK-4635,PAYLOAD,2023-06-08 02:47:32,15.08840308,0.0001191,53.2174,58.3876,93.5783,266.5345,3.4715e-05,2.65e-06,0.0,0 STARLINK-4635,1 53966U 22125C   23159.11635033  .00000265  00000-0  34715-4 0  9990,2 53966  53.2174  58.3876 0001191  93.5783 266.5345 15.08840308 37588,6917.879,95.438,540.568,538.921,0.0
53966.0,STARLINK-4635,PAYLOAD,2023-06-09 10:35:15,15.08846861,0.0001254,53.2175,52.4401,94.8819,265.2316,8.9077e-06,-1.46e-06,0.0,0 STARLINK-4635,1 53966U 22125C   23160.44114722 -.00000146  00000-0  89077-5 0  9996,2 53966  53.2175  52.4401 0001254  94.8819 265.2316 15.08846861 37788,6917.859,95.437,540.592,538.857,0.0
53966.0,STARLINK-4635,PAYLOAD,2023-06-10 02:29:06,15.08845039,0.0001342,53.2188,49.4676,94.7517,265.3629,8.2032e-05,1.018e-05,0.0,0 STARLINK-4635,1 53966U 22125C   23161.10354733  .00001018  00000-0  82032-4 0  9999,2 53966  53.2188  49.4676 0001342  94.7517 265.3629 15.08845039 37812,6917.865,95.437,540.658,538.802,0.0
53966.0,STARLINK-4635,PAYLOAD,2023-06-10 16:47:35,15.08838511,0.000123,53.2182,46.7943,95.2503,264.863,-5.8899e-05,-1.225e-05,0.0,0 STARLINK-4635,1 53966U 22125C   23161.69971672 -.00001225  00000-0 -58899-4 0  9996,2 53966  53.2182  46.7943 0001230  95.2503 264.8630 15.08838511 37970,6917.885,95.438,540.601,538.899,0.0
53966.0,STARLINK-4635,PAYLOAD,2023-06-11 08:41:26,15.08843962,9.27e-05,53.2171,43.8166,98.5471,261.5626,-3.9097e-05,-9.1e-06,0.0,0 STARLINK-4635,1 53966U 22125C   23162.36211096 -.00000910  00000-0 -39097-4 0  9997,2 53966  53.2171  43.8166 0000927  98.5471 261.5626 15.08843962 38005,6917.868,95.437,540.375,539.092,0.0
53966.0,STARLINK-4635,PAYLOAD,2023-06-11 21:24:31,15.0884191,0.00012,53.2175,41.4388,83.2482,276.8647,7.6124e-05,9.24e-06,0.0,0 STARLINK-4635,1 53966U 22125C   23162.89203072  .00000924  00000-0  76124-4 0  9995,2 53966  53.2175  41.4388 0001200  83.2482 276.8647 15.08841910 38088,6917.875,95.437,540.57,538.909,0.0
53966.0,STARLINK-4635,PAYLOAD,2023-06-11 22:59:54,15.08845717,0.000114,53.2174,41.1414,81.1169,278.9952,4.4842e-05,4.26e-06,0.0,0 STARLINK-4635,1 53966U 22125C   23162.95826930  .00000426  00000-0  44842-4 0  9995,2 53966  53.2174  41.1414 0001140  81.1169 278.9952 15.08845717 38166,6917.863,95.437,540.517,538.939,0.0
53966.0,STARLINK-4635,PAYLOAD,2023-06-12 08:32:13,15.08842251,0.0001143,53.2174,39.3573,80.3351,279.777,1.122e-05,-1.09e-06,0.0,0 STARLINK-4635,1 53966U 22125C   23163.35571193 -.00000109  00000-0  11220-4 0  9991,2 53966  53.2174  39.3573 0001143  80.3351 279.7770 15.08842251 38154,6917.874,95.437,540.529,538.948,0.0
53966.0,STARLINK-4635,PAYLOAD,2023-06-12 22:50:42,15.08833497,0.0001216,53.2176,36.6808,77.4296,282.6832,-1.6564e-06,-3.14e-06,0.0,0 STARLINK-4635,1 53966U 22125C   23163.95188011 -.00000314  00000-0 -16564-5 0  9996,2 53966  53.2176  36.6808 0001216  77.4296 282.6832 15.08833497 38247,6917.9,95.438,540.606,538.924,0.0
53966.0,STARLINK-4635,PAYLOAD,2023-06-13 14:44:33,15.08836061,0.0001161,53.2181,33.7083,89.1107,271.0018,5.9276e-05,6.56e-06,0.0,0 STARLINK-4635,1 53966U 22125C   23164.61427763  .00000656  00000-0  59276-4 0  9993,2 53966  53.2181  33.7083 0001161  89.1107 271.0018 15.08836061 38345,6917.892,95.438,540.561,538.954,0.0
53966.0,STARLINK-4635,PAYLOAD,2023-06-14 00:16:52,15.08844199,0.0001237,53.2179,31.9245,88.1181,271.9953,1.9265e-05,1.9e-07,0.0,0 STARLINK-4635,1 53966U 22125C   23165.01171370  .00000019  00000-0  19265-4 0  9995,2 53966  53.2179  31.9245 0001237  88.1181 271.9953 15.08844199 38479,6917.868,95.437,540.588,538.877,0.0
53966.0,STARLINK-4635,PAYLOAD,2023-06-14 14:35:21,15.08821776,0.0001279,53.2174,29.2474,90.9522,269.1616,0.00024129,3.552e-05,0.0,0 STARLINK-4635,1 53966U 22125C   23165.60788256  .00003552  00000-0  24129-3 0  9996,2 53966  53.2174  29.2474 0001279  90.9522 269.1616 15.08821776 38497,6917.936,95.439,540.686,538.916,0.0
53966.0,STARLINK-4635,PAYLOAD,2023-06-14 20:56:53,15.08826129,0.0001141,53.2175,28.0583,92.1415,267.9708,0.00023861,3.51e-05,0.0,0 STARLINK-4635,1 53966U 22125C   23165.87284144  .00003510  00000-0  23861-3 0  9998,2 53966  53.2175  28.0583 0001141  92.1415 267.9708 15.08826129 38539,6917.923,95.438,540.577,538.998,0.0
53966.0,STARLINK-4635,PAYLOAD,2023-06-15 14:26:07,15.08842572,0.0001299,53.2177,24.7892,69.061,291.0521,-1.7806e-06,-3.16e-06,0.0,0 STARLINK-4635,1 53966U 22125C   23166.60147889 -.00000316  00000-0 -17806-5 0  9991,2 53966  53.2177  24.7892 0001299  69.0610 291.0521 15.08842572 38712,6917.873,95.437,540.636,538.839,0.0
53966.0,STARLINK-4635,PAYLOAD,2023-06-15 20:47:39,15.08861364,0.0001111,53.2177,23.5981,75.2801,284.8314,-0.00018674,-3.26e-05,0.0,0 STARLINK-4635,1 53966U 22125C   23166.86643093 -.00003260  00000-0 -18674-3 0  9990,2 53966  53.2177  23.5981 0001111  75.2801 284.8314 15.08861364 38756,6917.815,95.436,540.449,538.912,0.0
53966.0,STARLINK-4635,PAYLOAD,2023-06-16 07:55:21,15.08842565,0.0001124,53.2174,21.5162,90.5354,269.5767,5.9047e-05,6.52e-06,0.0,0 STARLINK-4635,1 53966U 22125C   23167.33011509  .00000652  00000-0  59047-4 0  9994,2 53966  53.2174  21.5162 0001124  90.5354 269.5767 15.08842565 38821,6917.873,95.437,540.515,538.96,0.0
53966.0,STARLINK-4635,PAYLOAD,2023-06-16 20:38:26,15.08848608,0.0001113,53.2172,19.1368,91.1437,268.9683,0.00010006,1.305e-05,0.0,0 STARLINK-4635,1 53966U 22125C   23167.86002840  .00001305  00000-0  10006-3 0  9997,2 53966  53.2172  19.1368 0001113  91.1437 268.9683 15.08848608 38832,6917.854,95.437,540.489,538.949,0.0
53966.0,STARLINK-4635,PAYLOAD,2023-06-16 23:49:12,15.08854018,0.0001169,53.2173,18.5425,86.8942,273.2184,0.00014344,1.997e-05,0.0,0 STARLINK-4635,1 53966U 22125C   23167.99250318  .00001997  00000-0  14344-3 0  9992,2 53966  53.2173  18.5425 0001169  86.8942 273.2184 15.08854018 38920,6917.838,95.437,540.511,538.894,0.0
53966.0,STARLINK-4635,PAYLOAD,2023-06-17 14:07:42,15.08830119,0.0001159,53.2176,15.8662,85.6172,274.4952,-7.5635e-05,-1.491e-05,0.0,0 STARLINK-4635,1 53966U 22125C   23168.58868698 -.00001491  00000-0 -75635-4 0  9996,2 53966  53.2176  15.8662 0001159  85.6172 274.4952 15.08830119 39010,6917.911,95.438,540.577,538.974,0.0
53966.0,STARLINK-4635,PAYLOAD,2023-06-17 20:29:15,15.08828334,0.0001094,53.2176,14.6766,101.3469,258.7646,-8.5975e-05,-1.655e-05,0.0,0 STARLINK-4635,1 53966U 22125C   23168.85364931 -.00001655  00000-0 -85975-4 0  9997,2 53966  53.2176  14.6766 0001094 101.3469 258.7646 15.08828334 38981,6917.916,95.438,540.538,539.024,0.0
53966.0,STARLINK-4635,PAYLOAD,2023-06-17 23:40:01,15.0882745,0.0001216,53.2175,14.0814,90.3396,269.7736,-8.9413e-05,-1.71e-05,0.0,0 STARLINK-4635,1 53966U 22125C   23168.98613159 -.00001710  00000-0 -89413-4 0  9993,2 53966  53.2175  14.0814 0001216  90.3396 269.7736 15.08827450 39004,6917.919,95.438,540.625,538.943,0.0
53966.0,STARLINK-4635,PAYLOAD,2023-06-18 20:20:01,15.08846612,0.0001072,53.2181,10.2157,92.1993,267.9122,5.8964e-05,6.51e-06,0.0,0 STARLINK-4635,1 53966U 22125C   23169.84723623  .00000651  00000-0  58964-4 0  9995,2 53966  53.2181  10.2157 0001072  92.1993 267.9122 15.08846612 39136,6917.86,95.437,540.467,538.984,0.0
53966.0,STARLINK-4635,PAYLOAD,2023-06-19 12:13:53,15.08834058,8.89e-05,53.217,7.244,92.4444,267.665,0.000179,2.562e-05,0.0,0 STARLINK-4635,1 53966U 22125C   23170.50964160  .00002562  00000-0  17900-3 0  9990,2 53966  53.2170   7.2440 0000889  92.4444 267.6650 15.08834058 39239,6917.899,95.438,540.379,539.149,0.0
53966.0,STARLINK-4635,PAYLOAD,2023-06-19 20:10:49,15.08830911,0.0001025,53.2174,5.7568,96.619,263.4919,0.00016696,2.37e-05,0.0,0 STARLINK-4635,1 53966U 22125C   23170.84084589  .00002370  00000-0  16696-3 0  9993,2 53966  53.2174   5.7568 0001025  96.6190 263.4919 15.08830911 39285,6917.908,95.438,540.482,539.064,0.0
53966.0,STARLINK-4635,PAYLOAD,2023-06-20 05:43:07,15.08833713,9.42e-05,53.2174,3.972,103.577,256.5327,0.00011499,1.543e-05,0.0,0 STARLINK-4635,1 53966U 22125C   23171.23828670  .00001543  00000-0  11499-3 0  9991,2 53966  53.2174   3.9720 0000942 103.5770 256.5327 15.08833713 39340,6917.9,95.438,540.416,539.113,0.0
